{"type": "FeatureCollection", "features": [ {"type": "Feature", "properties": {"norad_id": 49810, "name": "GSAT0224 (GALILEO 28)", "group": "gnss", "lat": -15.162005906022927, "lon": 176.7081002423918, "alt_km": 23218.186263436157, "timestamp": "2025-12-14T22:38:41.002338+00:00", "meta": {"OBJECT_NAME": "GSAT0224 (GALILEO 28)", "OBJECT_ID": "2021-116B", "EPOCH": "2025-12-14T00:56:09.559392", "MEAN_MOTION": 1.70476108, "ECCENTRICITY": 0.00038616, "INCLINATION": 57.22, "RA_OF_ASC_NODE": 346.6758, "ARG_OF_PERICENTER": 256.6425, "MEAN_ANOMALY": 106.3645, "EPHEMERIS_TYPE": 0, "CLASSIFICATION_TYPE": "U", "NORAD_CAT_ID": 49810, "ELEMENT_SET_NO": 999, "REV_AT_EPOCH": 2505, "BSTAR": 0, "MEAN_MOTION_DOT": -8.5e-07, "MEAN_MOTION_DDOT": 0}, "tle": {"line1": "1 49810U 21116B   25348.03899953 -.00000085  00000+0  00000+0 0  9993", "line2": "2 49810  57.2200 346.6758 0003861 256.6425 106.3645  1.70476108 25058"}}, "geometry": {"type": "Point", "coordinates": [176.7081002423918, -15.162005906022927]}}, {"type": "Feature", "properties": {"norad_id": 52984, "name": "COSMOS 2557 (706K)", "group": "gnss", "lat": -13.20923313107957, "lon": 147.4206856917137, "alt_km": 19127.347723694747, "timestamp": "2025-12-14T22:38:41.002349+00:00", "meta": {"OBJECT_NAME": "COSMOS 2557 (706K)", "OBJECT_ID": "2022-075A", "EPOCH": "2025-12-07T04:21:00.419904", "MEAN_MOTION": 2.13101754, "ECCENTRICITY": 0.00137049, "INCLINATION": 64.4129, "RA_OF_ASC_NODE": 321.247, "ARG_OF_PERICENTER": 276.9, "MEAN_ANOMALY": 82.939, "EPHEMERIS_TYPE": 0, "CLASSIFICATION_TYPE": "U", "NORAD_CAT_ID": 52984, "ELEMENT_SET_NO": 999, "REV_AT_EPOCH": 2662, "BSTAR": 0, "MEAN_MOTION_DOT": -5.2e-07, "MEAN_MOTION_DDOT": 0}, "tle": {"line1": "1 52984U 22075A   25341.18125486 -.00000052  00000+0  00000+0 0  9990", "line2": "2 52984  64.4129 321.2470 0013704 276.9000  82.9390  2.13101754 26625"}}, "geometry": {"type": "Point", "coordinates": [147.4206856917137, -13.20923313107957]}}, {"type": "Feature", "properties": {"norad_id": 54031, "name": "COSMOS 2559 (707K)", "group": "gnss", "lat": -23.538815447149414, "lon": -51.010834927232885, "alt_km": 19156.7568775373, "timestamp": "2025-12-14T22:38:41.002360+00:00", "meta": {"OBJECT_NAME": "COSMOS 2559 (707K)", "OBJECT_ID": "2022-130A", "EPOCH": "2025-12-13T13:40:56.182944", "MEAN_MOTION": 2.13101371, "ECCENTRICITY": 0.00117769, "INCLINATION": 64.3818, "RA_OF_ASC_NODE": 321.1118, "ARG_OF_PERICENTER": 192.371, "MEAN_ANOMALY": 167.5998, "EPHEMERIS_TYPE": 0, "CLASSIFICATION_TYPE": "U", "NORAD_CAT_ID": 54031, "ELEMENT_SET_NO": 999, "REV_AT_EPOCH": 2473, "BSTAR": 0, "MEAN_MOTION_DOT": -6.4e-07, "MEAN_MOTION_DDOT": 0}, "tle": {"line1": "1 54031U 22130A   25347.57009471 -.00000064  00000+0  00000+0 0  9994", "line2": "2 54031  64.3818 321.1118 0011776 192.3710 167.5998  2.13101371 24737"}}, "geometry": {"type": "Point", "coordinates": [-51.010834927232885, -23.538815447149414]}}, {"type": "Feature", "properties": {"norad_id": 54377, "name": "COSMOS 2564 (761)", "group": "gnss", "lat": 64.55106074843836, "lon": -64.01357045095067, "alt_km": 19131.075778682236, "timestamp": "2025-12-14T22:38:41.002370+00:00", "meta": {"OBJECT_NAME": "COSMOS 2564 (761)", "OBJECT_ID": "2022-161A", "EPOCH": "2025-12-13T09:56:35.350656", "MEAN_MOTION": 2.13102091, "ECCENTRICITY": 0.00086002, "INCLINATION": 64.7383, "RA_OF_ASC_NODE": 198.8765, "ARG_OF_PERICENTER": 204.6894, "MEAN_ANOMALY": 155.3431, "EPHEMERIS_TYPE": 0, "CLASSIFICATION_TYPE": "U", "NORAD_CAT_ID": 54377, "ELEMENT_SET_NO": 999, "REV_AT_EPOCH": 2367, "BSTAR": 0, "MEAN_MOTION_DOT": 8.1e-07, "MEAN_MOTION_DDOT": 0}, "tle": {"line1": "1 54377U 22161A   25347.41429804  .00000081  00000+0  00000+0 0  9998", "line2": "2 54377  64.7383 198.8765 0008600 204.6894 155.3431  2.13102091 23679"}}, "geometry": {"type": "Point", "coordinates": [-64.01357045095067, 64.55106074843836]}}, {"type": "Feature", "properties": {"norad_id": 55268, "name": "GPS BIII-6  (PRN 28)", "group": "gnss", "lat": -20.786545954256205, "lon": 140.3822697421666, "alt_km": 20176.684783691635, "timestamp": "2025-12-14T22:38:41.002384+00:00", "meta": {"OBJECT_NAME": "GPS BIII-6  (PRN 28)", "OBJECT_ID": "2023-009A", "EPOCH": "2025-12-13T12:37:03.021024", "MEAN_MOTION": 2.00555696, "ECCENTRICITY": 0.00037118, "INCLINATION": 55.1051, "RA_OF_ASC_NODE": 155.8142, "ARG_OF_PERICENTER": 357.4368, "MEAN_ANOMALY": 33.2544, "EPHEMERIS_TYPE": 0, "CLASSIFICATION_TYPE": "U", "NORAD_CAT_ID": 55268, "ELEMENT_SET_NO": 999, "REV_AT_EPOCH": 2152, "BSTAR": 0, "MEAN_MOTION_DOT": 1e-06, "MEAN_MOTION_DDOT": 0}, "tle": {"line1": "1 55268U 23009A   25347.52572941  .00000100  00000+0  00000+0 0  9995", "line2": "2 55268  55.1051 155.8142 0003711 357.4368  33.2544  2.00555696 21528"}}, "geometry": {"type": "Point", "coordinates": [140.3822697421666, -20.786545954256205]}}, {"type": "Feature", "properties": {"norad_id": 56564, "name": "BEIDOU-3 G4 (C62)", "group": "gnss", "lat": -0.8142520266601337, "lon": -136.3966969401315, "alt_km": 35778.68087617531, "timestamp": "2025-12-14T22:38:41.002396+00:00", "meta": {"OBJECT_NAME": "BEIDOU-3 G4 (C62)", "OBJECT_ID": "2023-066A", "EPOCH": "2025-12-14T07:19:54.939936", "MEAN_MOTION": 1.0027173, "ECCENTRICITY": 0.00028443, "INCLINATION": 0.8112, "RA_OF_ASC_NODE": 302.1876, "ARG_OF_PERICENTER": 230.4527, "MEAN_ANOMALY": 180.6283, "EPHEMERIS_TYPE": 0, "CLASSIFICATION_TYPE": "U", "NORAD_CAT_ID": 56564, "ELEMENT_SET_NO": 999, "REV_AT_EPOCH": 954, "BSTAR": 0, "MEAN_MOTION_DOT": -9.3e-07, "MEAN_MOTION_DDOT": 0}, "tle": {"line1": "1 56564U 23066A   25348.30549699 -.00000093  00000+0  00000+0 0  9991", "line2": "2 56564   0.8112 302.1876 0002844 230.4527 180.6283  1.00271730  9545"}}, "geometry": {"type": "Point", "coordinates": [-136.3966969401315, -0.8142520266601337]}}, {"type": "Feature", "properties": {"norad_id": 56759, "name": "NVS-01 (IRNSS-1J)", "group": "gnss", "lat": -2.2465417068284474, "lon": -167.07956263431765, "alt_km": 35774.25088348082, "timestamp": "2025-12-14T22:38:41.002433+00:00", "meta": {"OBJECT_NAME": "NVS-01 (IRNSS-1J)", "OBJECT_ID": "2023-076A", "EPOCH": "2025-12-14T07:11:10.777056", "MEAN_MOTION": 1.00276861, "ECCENTRICITY": 0.00089161, "INCLINATION": 2.6142, "RA_OF_ASC_NODE": 251.5399, "ARG_OF_PERICENTER": 14.8573, "MEAN_ANOMALY": 54.0881, "EPHEMERIS_TYPE": 0, "CLASSIFICATION_TYPE": "U", "NORAD_CAT_ID": 56759, "ELEMENT_SET_NO": 999, "REV_AT_EPOCH": 926, "BSTAR": 0, "MEAN_MOTION_DOT": -3.15e-06, "MEAN_MOTION_DDOT": 0}, "tle": {"line1": "1 56759U 23076A   25348.29943029 -.00000315  00000+0  00000+0 0  9998", "line2": "2 56759   2.6142 251.5399 0008916  14.8573  54.0881  1.00276861  9269"}}, "geometry": {"type": "Point", "coordinates": [-167.07956263431765, -2.2465417068284474]}}, {"type": "Feature", "properties": {"norad_id": 57517, "name": "COSMOS 2569 (703K)", "group": "gnss", "lat": 64.27795090437633, "lon": 152.27704994186473, "alt_km": 19147.41708845301, "timestamp": "2025-12-14T22:38:41.002451+00:00", "meta": {"OBJECT_NAME": "COSMOS 2569 (703K)", "OBJECT_ID": "2023-114A", "EPOCH": "2025-12-13T21:31:33.711744", "MEAN_MOTION": 2.13104015, "ECCENTRICITY": 0.00105602, "INCLINATION": 65.1948, "RA_OF_ASC_NODE": 78.8743, "ARG_OF_PERICENTER": 286.9875, "MEAN_ANOMALY": 72.9108, "EPHEMERIS_TYPE": 0, "CLASSIFICATION_TYPE": "U", "NORAD_CAT_ID": 57517, "ELEMENT_SET_NO": 999, "REV_AT_EPOCH": 1831, "BSTAR": 0, "MEAN_MOTION_DOT": -5.2e-07, "MEAN_MOTION_DDOT": 0}, "tle": {"line1": "1 57517U 23114A   25347.89691796 -.00000052  00000+0  00000+0 0  9998", "line2": "2 57517  65.1948  78.8743 0010560 286.9875  72.9108  2.13104015 18311"}}, "geometry": {"type": "Point", "coordinates": [152.27704994186473, 64.27795090437633]}}, {"type": "Feature", "properties": {"norad_id": 58654, "name": "BEIDOU-3 M28 (C50)", "group": "gnss", "lat": -45.488971346928885, "lon": -67.33288358649051, "alt_km": 21527.548297796973, "timestamp": "2025-12-14T22:38:41.002463+00:00", "meta": {"OBJECT_NAME": "BEIDOU-3 M28 (C50)", "OBJECT_ID": "2023-207A", "EPOCH": "2025-12-14T01:10:25.688352", "MEAN_MOTION": 1.86229806, "ECCENTRICITY": 0.00024295, "INCLINATION": 55.5856, "RA_OF_ASC_NODE": 68.557, "ARG_OF_PERICENTER": 270.0731, "MEAN_ANOMALY": 89.9173, "EPHEMERIS_TYPE": 0, "CLASSIFICATION_TYPE": "U", "NORAD_CAT_ID": 58654, "ELEMENT_SET_NO": 999, "REV_AT_EPOCH": 1339, "BSTAR": 0, "MEAN_MOTION_DOT": -8.3e-07, "MEAN_MOTION_DDOT": 0}, "tle": {"line1": "1 58654U 23207A   25348.04890843 -.00000083  00000+0  00000+0 0  9990", "line2": "2 58654  55.5856  68.5570 0002429 270.0731  89.9173  1.86229806 13397"}}, "geometry": {"type": "Point", "coordinates": [-67.33288358649051, -45.488971346928885]}}, {"type": "Feature", "properties": {"norad_id": 58655, "name": "BEIDOU-3 M26 (C48)", "group": "gnss", "lat": 12.717729798827321, "lon": 77.40701249300477, "alt_km": 21531.907606072335, "timestamp": "2025-12-14T22:38:41.002474+00:00", "meta": {"OBJECT_NAME": "BEIDOU-3 M26 (C48)", "OBJECT_ID": "2023-207B", "EPOCH": "2025-12-13T07:25:48.468864", "MEAN_MOTION": 1.86231261, "ECCENTRICITY": 0.00038294, "INCLINATION": 55.587, "RA_OF_ASC_NODE": 68.5683, "ARG_OF_PERICENTER": 255.9601, "MEAN_ANOMALY": 104.0159, "EPHEMERIS_TYPE": 0, "CLASSIFICATION_TYPE": "U", "NORAD_CAT_ID": 58655, "ELEMENT_SET_NO": 999, "REV_AT_EPOCH": 1336, "BSTAR": 0, "MEAN_MOTION_DOT": -7.9e-07, "MEAN_MOTION_DDOT": 0}, "tle": {"line1": "1 58655U 23207B   25347.30958876 -.00000079  00000+0  00000+0 0  9995", "line2": "2 58655  55.5870  68.5683 0003829 255.9601 104.0159  1.86231261 13360"}}, "geometry": {"type": "Point", "coordinates": [77.40701249300477, 12.717729798827321]}}]}